[{"OBJECT_NAME":"KUIPER-00024","OBJECT_ID":"2025-088Q","EPOCH":"2026-03-09T11:03:07.949088","MEAN_MOTION":14.79924198,"ECCENTRICITY":7.822e-5,"INCLINATION":51.9036,"RA_OF_ASC_NODE":94.1265,"ARG_OF_PERICENTER":82.5725,"MEAN_ANOMALY":277.5327,"EPHEMERIS_TYPE":0,"CLASSIFICATION_TYPE":"U","NORAD_CAT_ID":63738,"ELEMENT_SET_NO":999,"REV_AT_EPOCH":4802,"BSTAR":0.00026756845,"MEAN_MOTION_DOT":1.819e-5,"MEAN_MOTION_DDOT":0},{"OBJECT_NAME":"NOAA 16 DEB","OBJECT_ID":"2000-055QM","EPOCH":"2026-02-13T20:17:25.525248","MEAN_MOTION":14.8112506,"ECCENTRICITY":0.0019072,"INCLINATION":98.7098,"RA_OF_ASC_NODE":187.8427,"ARG_OF_PERICENTER":4.6207,"MEAN_ANOMALY":355.5176,"EPHEMERIS_TYPE":0,"CLASSIFICATION_TYPE":"U","NORAD_CAT_ID":42345,"ELEMENT_SET_NO":999,"REV_AT_EPOCH":51220,"BSTAR":0.00418518,"MEAN_MOTION_DOT":0.00032705,"MEAN_MOTION_DDOT":0}]
